{
  "norad_id": 65900,
  "name": "STARLINK-35264",
  "history": [
    {
      "epoch": "2026-03-28T20:38:09.830400Z",
      "apogee_km": 475.88875645515236,
      "perigee_km": 474.4797136092293,
      "latitude_deg": -3.0151233032599497e-05,
      "longitude_deg": 146.176688590816,
      "height_km": 475.9858262987248,
      "semi_major_axis_km": 6853.32123503219,
      "eccentricity": 0.0001028,
      "inclination_deg": 53.1593,
      "raan_deg": 281.9919,
      "arg_perigee_deg": 82.106,
      "mean_anomaly_deg": 278.0057,
      "mean_motion_rev_day": 15.30210327
    },
    {
      "epoch": "2026-03-29T21:43:01.038432Z",
      "apogee_km": 475.98930121527155,
      "perigee_km": 474.42947957681645,
      "latitude_deg": 1.8099030310705529e-06,
      "longitude_deg": 124.07951041139712,
      "height_km": 476.0729797701378,
      "semi_major_axis_km": 6853.346390396044,
      "eccentricity": 0.0001138,
      "inclination_deg": 53.1591,
      "raan_deg": 277.1381,
      "arg_perigee_deg": 87.4594,
      "mean_anomaly_deg": 272.6537,
      "mean_motion_rev_day": 15.30201902
    },
    {
      "epoch": "2026-03-30T05:33:17.355168Z",
      "apogee_km": 476.2274135799489,
      "perigee_km": 474.1453739329254,
      "latitude_deg": 9.101178026033537e-06,
      "longitude_deg": 4.6716400506119236,
      "height_km": 475.98005217098483,
      "semi_major_axis_km": 6853.323393756436,
      "eccentricity": 0.0001519,
      "inclination_deg": 53.1598,
      "raan_deg": 275.6201,
      "arg_perigee_deg": 84.2629,
      "mean_anomaly_deg": 275.8545,
      "mean_motion_rev_day": 15.30209604
    },
    {
      "epoch": "2026-03-30T22:47:52.516896Z",
      "apogee_km": 476.17708421970565,
      "perigee_km": 474.1992145815884,
      "latitude_deg": 7.030019388239011e-05,
      "longitude_deg": 101.98033030620594,
      "height_km": 475.5652388586775,
      "semi_major_axis_km": 6853.325149400646,
      "eccentricity": 0.0001443,
      "inclination_deg": 53.1583,
      "raan_deg": 272.2834,
      "arg_perigee_deg": 58.2177,
      "mean_anomaly_deg": 301.8965,
      "mean_motion_rev_day": 15.30209016
    },
    {
      "epoch": "2026-03-30T22:47:52.517760Z",
      "apogee_km": 476.17735835271196,
      "perigee_km": 474.1989404485821,
      "latitude_deg": 6.718256538278967e-05,
      "longitude_deg": 101.98032437342489,
      "height_km": 475.56509447415914,
      "semi_major_axis_km": 6853.325149400646,
      "eccentricity": 0.00014434,
      "inclination_deg": 53.1583,
      "raan_deg": 272.2834,
      "arg_perigee_deg": 58.2177,
      "mean_anomaly_deg": 301.8965,
      "mean_motion_rev_day": 15.30209016
    },
    {
      "epoch": "2026-04-01T18:41:21.846912Z",
      "apogee_km": 476.2766424321753,
      "perigee_km": 474.0863218452823,
      "latitude_deg": 3.033902453173623e-05,
      "longitude_deg": 153.3079354987902,
      "height_km": 475.2983587056803,
      "semi_major_axis_km": 6853.3184821387285,
      "eccentricity": 0.0001598,
      "inclination_deg": 53.1575,
      "raan_deg": 263.7858,
      "arg_perigee_deg": 315.7021,
      "mean_anomaly_deg": 44.3852,
      "mean_motion_rev_day": 15.30211249
    },
    {
      "epoch": "2026-04-02T18:12:09.560736Z",
      "apogee_km": 476.5998248568558,
      "perigee_km": 473.7611807471958,
      "latitude_deg": -4.4939079409357336e-05,
      "longitude_deg": 155.0940175889772,
      "height_km": 475.9914015599747,
      "semi_major_axis_km": 6853.317502802026,
      "eccentricity": 0.0002071,
      "inclination_deg": 53.1578,
      "raan_deg": 259.2364,
      "arg_perigee_deg": 86.5336,
      "mean_anomaly_deg": 273.5901,
      "mean_motion_rev_day": 15.30211577
    },
    {
      "epoch": "2026-04-02T18:12:09.561600Z",
      "apogee_km": 476.5996877905063,
      "perigee_km": 473.76131781354616,
      "latitude_deg": -4.3109518507011344e-05,
      "longitude_deg": 155.09401534234013,
      "height_km": 475.99140984913726,
      "semi_major_axis_km": 6853.317502802026,
      "eccentricity": 0.00020708,
      "inclination_deg": 53.1578,
      "raan_deg": 259.2364,
      "arg_perigee_deg": 86.5336,
      "mean_anomaly_deg": 273.5901,
      "mean_motion_rev_day": 15.30211577
    },
    {
      "epoch": "2026-04-03T17:42:57.815424Z",
      "apogee_km": 475.93084640852067,
      "perigee_km": 474.59169238668073,
      "latitude_deg": 5.716955294365079e-05,
      "longitude_deg": 156.87617139673014,
      "height_km": 475.8929201919018,
      "semi_major_axis_km": 6853.3982693976,
      "eccentricity": 9.77e-05,
      "inclination_deg": 53.1542,
      "raan_deg": 254.6852,
      "arg_perigee_deg": 66.5652,
      "mean_anomaly_deg": 293.5452,
      "mean_motion_rev_day": 15.30184527
    },
    {
      "epoch": "2026-04-04T20:21:52.291296Z",
      "apogee_km": 475.6599911060148,
      "perigee_km": 474.5483953844705,
      "latitude_deg": 5.4598253367543344e-05,
      "longitude_deg": 110.89307225894662,
      "height_km": 475.88018127129055,
      "semi_major_axis_km": 6853.241193245242,
      "eccentricity": 8.11e-05,
      "inclination_deg": 53.1575,
      "raan_deg": 249.5235,
      "arg_perigee_deg": 77.2706,
      "mean_anomaly_deg": 282.8386,
      "mean_motion_rev_day": 15.30237135
    },
    {
      "epoch": "2026-04-05T13:36:28.585728Z",
      "apogee_km": 475.64773919736945,
      "perigee_km": 474.86700051075604,
      "latitude_deg": 6.0431954078605336e-05,
      "longitude_deg": -151.79831325030446,
      "height_km": 476.45275063442364,
      "semi_major_axis_km": 6853.3943698540625,
      "eccentricity": 5.696e-05,
      "inclination_deg": 53.1581,
      "raan_deg": 246.1915,
      "arg_perigee_deg": 139.39,
      "mean_anomaly_deg": 220.7144,
      "mean_motion_rev_day": 15.30185833
    },
    {
      "epoch": "2026-04-05T19:52:41.841984Z",
      "apogee_km": 476.13637603116877,
      "perigee_km": 474.55185119770067,
      "latitude_deg": -1.3108985946598218e-05,
      "longitude_deg": 112.67178300509114,
      "height_km": 476.9512405035545,
      "semi_major_axis_km": 6853.481113614434,
      "eccentricity": 0.0001156,
      "inclination_deg": 53.1572,
      "raan_deg": 244.9744,
      "arg_perigee_deg": 153.3974,
      "mean_anomaly_deg": 206.7086,
      "mean_motion_rev_day": 15.30156782
    },
    {
      "epoch": "2026-04-05T19:52:41.842848Z",
      "apogee_km": 476.1360333571138,
      "perigee_km": 474.5521938717566,
      "latitude_deg": -1.1040632816018778e-05,
      "longitude_deg": 112.67178093640419,
      "height_km": 476.9509341124478,
      "semi_major_axis_km": 6853.481113614434,
      "eccentricity": 0.00011555,
      "inclination_deg": 53.1572,
      "raan_deg": 244.9744,
      "arg_perigee_deg": 153.3974,
      "mean_anomaly_deg": 206.7086,
      "mean_motion_rev_day": 15.30156782
    },
    {
      "epoch": "2026-04-07T15:46:08.853024Z",
      "apogee_km": 475.84313089733223,
      "perigee_km": 474.65064210108176,
      "latitude_deg": -8.963892460109444e-06,
      "longitude_deg": 164.0135027776422,
      "height_km": 475.8388178774735,
      "semi_major_axis_km": 6853.383886499207,
      "eccentricity": 8.7e-05,
      "inclination_deg": 53.1577,
      "raan_deg": 236.4812,
      "arg_perigee_deg": 59.0549,
      "mean_anomaly_deg": 301.0537,
      "mean_motion_rev_day": 15.30189344
    },
    {
      "epoch": "2026-04-08T15:16:57.595008Z",
      "apogee_km": 475.92747275849615,
      "perigee_km": 474.53075674431057,
      "latitude_deg": -1.939210675054035e-05,
      "longitude_deg": 165.79523368518204,
      "height_km": 475.90335209595673,
      "semi_major_axis_km": 6853.366114751403,
      "eccentricity": 0.0001019,
      "inclination_deg": 53.1594,
      "raan_deg": 231.9317,
      "arg_perigee_deg": 71.2751,
      "mean_anomaly_deg": 288.836,
      "mean_motion_rev_day": 15.30195296
    },
    {
      "epoch": "2026-04-09T14:47:45.524832Z",
      "apogee_km": 476.12190972640474,
      "perigee_km": 474.2742505887936,
      "latitude_deg": 6.008468311240424e-05,
      "longitude_deg": 167.58112489772466,
      "height_km": 475.84380647754995,
      "semi_major_axis_km": 6853.335080157599,
      "eccentricity": 0.0001348,
      "inclination_deg": 53.1601,
      "raan_deg": 227.3829,
      "arg_perigee_deg": 74.1497,
      "mean_anomaly_deg": 285.9653,
      "mean_motion_rev_day": 15.3020569
    },
    {
      "epoch": "2026-04-10T12:44:30.429600Z",
      "apogee_km": 475.9647102247536,
      "perigee_km": 474.41585825851416,
      "latitude_deg": -7.724094753964512e-06,
      "longitude_deg": -166.75621346762017,
      "height_km": 475.92115172394324,
      "semi_major_axis_km": 6853.327284241634,
      "eccentricity": 0.000113,
      "inclination_deg": 53.1589,
      "raan_deg": 223.134,
      "arg_perigee_deg": 77.5222,
      "mean_anomaly_deg": 282.5905,
      "mean_motion_rev_day": 15.30208301
    },
    {
      "epoch": "2026-04-11T12:15:19.778976Z",
      "apogee_km": 476.2406153055581,
      "perigee_km": 474.26135685517784,
      "latitude_deg": -9.018077943915793e-06,
      "longitude_deg": -164.97681242560986,
      "height_km": 475.9941361336385,
      "semi_major_axis_km": 6853.387986080368,
      "eccentricity": 0.0001444,
      "inclination_deg": 53.1602,
      "raan_deg": 218.5847,
      "arg_perigee_deg": 81.0048,
      "mean_anomaly_deg": 279.1116,
      "mean_motion_rev_day": 15.30187971
    },
    {
      "epoch": "2026-04-13T00:18:32.512320Z",
      "apogee_km": 475.6561606261366,
      "perigee_km": 474.76316955567563,
      "latitude_deg": 5.3239001861494604e-05,
      "longitude_deg": 5.760210943210553,
      "height_km": 475.76535147381344,
      "semi_major_axis_km": 6853.346665090906,
      "eccentricity": 6.515e-05,
      "inclination_deg": 53.1587,
      "raan_deg": 211.6054,
      "arg_perigee_deg": 39.733,
      "mean_anomaly_deg": 320.3719,
      "mean_motion_rev_day": 15.3020181
    },
    {
      "epoch": "2026-04-14T06:05:34.227168Z",
      "apogee_km": 476.3838255489045,
      "perigee_km": 473.9577545912189,
      "latitude_deg": 1.656288073015574e-05,
      "longitude_deg": -87.985038218023,
      "height_km": 475.6986315269394,
      "semi_major_axis_km": 6853.307790070061,
      "eccentricity": 0.000177,
      "inclination_deg": 53.1582,
      "raan_deg": 205.8405,
      "arg_perigee_deg": 72.267,
      "mean_anomaly_deg": 287.8524,
      "mean_motion_rev_day": 15.3021483
    }
  ]
}